#dP2022  7 13  0  0  0.00000000      96 __u+U ITR00 FIT  IAC
## 2218 259200.00000000   900.00000000 59773 0.0000000000000
+  116   C06C07C08C09C10C11C12C13C14C16C19C20C21C22C23C24C25
+        C26C27C28C29C30C32C33C34C35C36C37C38C39C40C41C42C43
+        C44C45C46E01E02E03E04E05E07E08E09E10E11E12E13E14E15
+        E18E19E21E24E25E26E27E30E31E33E34E36G01G02G03G04G05
+        G06G07G08G09G10G11G12G13G14G15G16G17G18G19G20G21G22
+        G23G24G25G26G27G28G29G30G31G32J02J03R01R02R03R04R05
+        R07R08R09R11R12R13R14R15R17R18R19R20R21R24  0  0  0
++         7  7  7  8  7  6  7  8  7  8  5  6  6  6  8  7  8
++         7  6  7  5  7  6  6  8  7  6  6 10  8  8  7  6  7
++         8  6  8  7  6  5  6  7  6  6  7  8  7  6  7  8  6
++         7  5  6  7  6  6  6  6  6  6  6  5  7  8  7  6  7
++         6  6  7  6  6  7  6  6  7  6  5  5  5  6  6  5  6
++         7  6  7  6  7  6  5  6  5  6  8  8  6  6  6  7  6
++         8  7  7  7  6  6  6  6  8  7  8  6  5  7  0  0  0
%c M  cc GPS ccc cccc cccc cccc cccc ccccc ccccc ccccc ccccc
%c cc cc ccc ccc cccc cccc cccc cccc ccccc ccccc ccccc ccccc
%f  0.0000000  0.000000000  0.00000000000  0.000000000000000
%f  0.0000000  0.000000000  0.00000000000  0.000000000000000
%i    0    0    0    0      0      0      0      0         0
%i    0    0    0    0      0      0      0      0         0
/* INFORMATION & ANALYSIS CENTER (IAC)      ULTRA-RAPID DATA
/* S/V CLOCKS ARE ALIGNED TO GNSS TIME                      
/* G:C1WC2W R:C1PC2P E:C1XC5X C:C2IC6I J:C1CC2S             
/* PCV:IGS14_2215 OL/AL:FES2004  NONE     YN ORB:CoN CLK:CoN
*  2022 07 13  9 15  0.00000000
PC06 -11777.036687  40613.464335    111.489038    384.174217
PC07  -2152.199818  29993.349350 -29458.908070   -422.920138
PC08 -15356.522345  23120.626082  31656.079425    402.238875
PC09  -8433.102823  40921.441051  -7031.332269   -929.295922
PC10   4291.360477  31949.513009 -26645.726993    118.893303
PC11  -5687.278534 -22194.038774 -15898.941693    471.585090
PC12   6131.448117 -27232.355478    438.523131   -578.174658
PC13  -9618.319079  24484.239647  32994.936707     22.647915
PC14 -17143.749592 -20997.886487  -6742.214828    539.434702
PC16 -13187.793753  40110.044958   2768.410900    143.024247
PC19  22109.996822  16801.479340  -2601.636885   -199.746279
PC20  10791.944852  21778.313828  13692.869696   -963.911769
PC21   7790.050062 -13989.591004 -22842.092526   -668.639996
PC22  21107.667439   1869.515360 -18142.949319   -962.822072
PC23 -26946.038372   5945.263760   4176.809100   -944.672978
PC24    581.953504 -17008.583775  22117.343052   -967.833487
PC25 -19874.426970  -6763.586903  18372.204448   -708.280977
PC26  17864.282355 -16765.265742  13385.498786    710.241168
PC27 -11285.085435  23956.979182  -8843.612710    753.504812
PC28 -16543.452719   7966.491372 -21014.595265     89.458125
PC29  12616.009446  13214.144963  21081.892867    581.064150
PC30   1078.279618  26726.524340   7975.998212    501.043034
PC32  -7798.138091  13993.167651  22863.192875   -972.705522
PC33 -22213.796053 -16717.732021   2545.699789   -154.487806
PC34  -1807.587836 -26358.126726  -8972.205300   -359.886771
PC35  16381.458316  -7188.667699  21396.571607    363.693510
PC36  19303.724237   7564.923409 -18648.630993   -973.662987
PC37 -19194.634038  15965.139587 -12426.688923   -916.415865
PC38      0.000000      0.000000      0.000000 999999.999999
PC39 -14396.454060  38681.564553   9100.046369     -0.039372
PC40  -5700.652537  25052.546720 -33388.504767     -0.480316
PC41 -21380.131899  -2216.611533  17850.273226    -76.681207
PC42  -9915.716021 -21704.285847 -14445.900773   -953.915022
PC43 -12368.351349 -13987.691466 -20746.507676      2.674071
PC44  10546.047361 -24216.965376   8944.482378    722.550655
PC45  26939.112532  -6220.565847  -3852.523172    807.746515
PC46   1272.280857  16462.813181 -22484.129079   -429.340886
PE01 -15683.915020 -16351.955820  19053.245519   -514.233179
PE02  15874.170301  16305.185858 -18932.259186    311.654501
PE03  12615.706875  26350.947269  -4708.730541   -578.499002
PE04 -18759.678408 -11258.203602  19948.866497  -1070.372466
PE05  -1082.059425  26258.368912  13622.067054   -163.407713
PE07  13917.133809 -10914.770710 -23728.004189   -687.064880
PE08  18680.747258  11037.428241 -20123.322343   -562.807986
PE09 -13766.247004  10890.308433  23838.177520   -585.962036
PE10 -22387.495897   9381.396268 -16950.577860   -500.214090
PE11 -22224.845665  17860.773673  -7991.454784   3026.726525
PE12 -19158.924080   -229.336314 -22576.729084    -59.625310
PE13  22293.178431 -17432.039255   8669.427338    429.794825
PE14   3578.522919 -26090.141316   9504.380964  -1780.468781
PE15  19011.533469    304.685503  22681.424679    733.570433
PE18 -13089.484727  17831.383458 -18813.171673  -1219.674510
PE19 -11109.527638 -27336.604734   2350.501525  -5106.833806
PE21   4786.299145 -16020.228983  24430.250264   -745.620266
PE24 -24648.758061   5757.557856 -15337.567930   -722.255479
PE25  -5112.422594  15937.220587 -24403.336081   -580.881355
PE26  11768.058242 -24794.622727 -11099.578359  -1371.470643
PE27  23914.620082  -6538.557662  16183.125816   -343.699714
PE30  28563.047550   7408.295537  -2403.767137   -668.444671
PE31 -28788.569143  -6717.002716   1532.666006   -499.829798
PE33  -4541.009253 -17760.941850 -23243.537733   -454.739789
PE34   4737.193273  17615.802232  23294.005234   -485.604418
PE36 -12476.322057  24788.461162  10298.384956   -401.488159
PG01  11294.972721 -20848.763064 -11908.969463    322.371637
PG02 -20708.014155  14256.534898  -8156.627615   -651.495771
PG03   4023.330233 -14414.582341 -22060.679986   -305.859980
PG04   2642.940385 -24251.762744 -10381.080677   -146.468559
PG05 -18386.266569   7768.587486  17422.837310    -88.959640
PG06 -18553.944210     64.824705 -18977.250738    382.930935
PG07  -4089.575362 -16429.838897  20764.026859    319.445676
PG08   7204.123389 -19056.627419  16807.636082    -75.994774
PG09  -6310.902138 -25780.090871   -261.511596   -319.513261
PG10  23077.959621  11753.007383   6713.223222   -490.102265
PG11 -22567.846921  10555.144411  -9171.594997    -10.850608
PG12  -7975.430525  13086.032069 -21952.739243   -245.674715
PG13 -13247.884151  10001.922131  20536.093452    347.510867
PG14 -21753.491168 -13298.009520   7631.212578   -111.866681
PG15  -5378.090873  19929.101623  16121.109714    -45.807006
PG16  22611.246497  -1170.838788  13974.458739   -515.045433
PG17 -12776.508662 -17976.884811 -14326.054885    636.292761
PG18   3218.306847  16175.432160  20781.415874    114.738471
PG19 -14881.229164  -9395.290380 -20218.916050    183.087261
PG20 -25272.548910   1989.269949   7520.861377    503.615099
PG21  17036.080496 -19797.122441  -1063.161461    161.127207
PG22  15295.339313   6390.672242 -20374.091486    291.548408
PG23  15363.324593  15233.246557  15471.806195    -32.699138
PG24 -12751.128335  21970.981796  -7283.177641    198.173051
PG25   7309.874343  16681.548963 -19709.110620    348.597311
PG26  26185.284432   3194.178330   4230.144995    217.942758
PG27  13775.487989  -6006.748868  21655.564897    220.555542
PG28 -24598.358898  -9596.563135   -675.697100    333.945326
PG29   4176.923551  26185.926653    240.929883   -533.096358
PG30 -13439.267419  -8938.703124  21209.960798   -533.869764
PG31  20469.309554  -1900.533732 -17200.352707   -185.554153
PG32  15072.664123  14984.572966 -15896.849282   -175.052655
PJ02 -31379.770407  14688.050391 -19465.600375     -1.632765
PJ03 -22193.013582  33856.332439  -6889.529424     -0.116034
PR01   4077.589059  18059.630842  17541.931131     11.407621
PR02  15709.072013  20139.440839     -9.749406    523.985530
PR03  17297.721036   9552.331230 -16118.905069     60.130018
PR04   9004.513415  -5970.858000 -23078.243108    150.475460
PR05  -4033.480718 -18291.056101 -17292.129210     96.163600
PR07 -17083.143738  -8811.796959  16782.537289     37.784617
PR08  -8983.334299   6253.244324  23097.495944    -66.178900
PR09 -13959.875603  -7653.631320  19977.506230     65.526687
PR11 -21895.344782   8408.090221 -10034.360292     33.436550
PR12  -5482.595386  11522.082533 -22053.830024     19.275748
PR13  12500.681934   8025.058595 -20743.839029    -24.558000
PR14  24665.750178   -746.476933  -6398.721061     24.906823
PR15  21421.834412  -8550.286334  10910.690942     94.701259
PR17  11730.516107  -1651.748018  22596.675647    543.084853
PR18  13449.894166 -17231.822892  13114.116520    123.394384
PR19   9423.118702 -23613.515352  -2130.113393   -196.125003
PR20  -2281.992345 -16206.541158 -19551.174330    -74.498662
PR21 -12100.363471   3153.599031 -22234.886982   -317.024766
PR24   3483.897684  15771.873055  19744.734200    103.335397
EOF
